{
    "links": {
        "self": "http://www.neowsapp.com/rest/v1/neo/3602575?api_key=iIulBulltgU6a56xZRHN4H3l9WmuAYTsLGpBGhQ2"
    },
    "id": "3602575",
    "neo_reference_id": "3602575",
    "name": "(2012 GY11)",
    "designation": "2012 GY11",
    "nasa_jpl_url": "http://ssd.jpl.nasa.gov/sbdb.cgi?sstr=3602575",
    "absolute_magnitude_h": 26.6,
    "estimated_diameter": {
        "kilometers": {
            "estimated_diameter_min": 0.0127219879,
            "estimated_diameter_max": 0.0284472297
        },
        "meters": {
            "estimated_diameter_min": 12.7219878539,
            "estimated_diameter_max": 28.4472296503
        },
        "miles": {
            "estimated_diameter_min": 0.0079050743,
            "estimated_diameter_max": 0.0176762835
        },
        "feet": {
            "estimated_diameter_min": 41.7388066307,
            "estimated_diameter_max": 93.330808926
        }
    },
    "is_potentially_hazardous_asteroid": false,
    "close_approach_data": [
        {
            "close_approach_date": "2012-04-14",
            "close_approach_date_full": "2012-Apr-14 14:06",
            "epoch_date_close_approach": 1334412360000,
            "relative_velocity": {
                "kilometers_per_second": "7.2053396416",
                "kilometers_per_hour": "25939.2227098958",
                "miles_per_hour": "16117.6242443794"
            },
            "miss_distance": {
                "astronomical": "0.023214455",
                "lunar": "9.030422995",
                "kilometers": "3472833.02121085",
                "miles": "2157918.37537573"
            },
            "orbiting_body": "Earth"
        },
        {
            "close_approach_date": "2070-01-31",
            "close_approach_date_full": "2070-Jan-31 09:06",
            "epoch_date_close_approach": 3158384760000,
            "relative_velocity": {
                "kilometers_per_second": "17.1197639514",
                "kilometers_per_hour": "61631.1502249558",
                "miles_per_hour": "38295.1999828343"
            },
            "miss_distance": {
                "astronomical": "0.3588790702",
                "lunar": "139.6039583078",
                "kilometers": "53687544.489500474",
                "miles": "33359893.2269715812"
            },
            "orbiting_body": "Earth"
        }
    ],
    "orbital_data": {
        "orbit_id": "7",
        "orbit_determination_date": "2018-02-10 07:05:02",
        "first_observation_date": "2012-04-15",
        "last_observation_date": "2012-04-19",
        "data_arc_in_days": 4,
        "observations_used": 34,
        "orbit_uncertainty": "7",
        "minimum_orbit_intersection": ".0167148",
        "jupiter_tisserand_invariant": "3.942",
        "epoch_osculation": "2459000.5",
        "eccentricity": ".4460591631598042",
        "semi_major_axis": "1.798579190880124",
        "inclination": "4.435881364258056",
        "ascending_node_longitude": "209.1270861421645",
        "orbital_period": "881.0342128195236",
        "perihelion_distance": ".9963064621194984",
        "perihelion_argument": "331.9257399311434",
        "aphelion_distance": "2.600851919640751",
        "perihelion_time": "2458656.005420551958",
        "mean_anomaly": "140.7641687425591",
        "mean_motion": ".4086106927084165",
        "equinox": "J2000",
        "orbit_class": {
            "orbit_class_type": "APO",
            "orbit_class_description": "Near-Earth asteroid orbits which cross the Earth’s orbit similar to that of 1862 Apollo",
            "orbit_class_range": "a (semi-major axis) > 1.0 AU; q (perihelion) < 1.017 AU"
        }
    },
    "is_sentry_object": false
}